{"type":"FeatureCollection","features":[{"id":"0","type":"Feature","properties":{"Name":"PK 3+000 au PK 3+650 V2","Appellation":"Les Giraudières\nDBT 0031","Superficie":"6546 m2","Occupation":"NON ACTIVE","Animaux":"","Coordonn__es_Eleveur":"Olivier PODEVIN\npodevin_olivier@orange.fr\n06 74 28 67 13","Base_responsable":"BMN"},"geometry":{"type":"Polygon","coordinates":[[[0.7192506,47.3095568,0.0],[0.7203771,47.3101787,0.0],[0.7214178,47.3108153,0.0],[0.7210369,47.3109025,0.0],[0.7200713,47.3102915,0.0],[0.7185693,47.3097204,0.0],[0.7187302,47.3095277,0.0],[0.7191486,47.3096186,0.0],[0.7192506,47.3095568,0.0]]]}},{"id":"1","type":"Feature","properties":{"Name":"PK 4+370 au PK 4+600 V2","Appellation":"Veigné\nDBT TRC 0040\nParcelle 4A","Superficie":"3028 m2","Occupation":"ACTIVE","Animaux":"2 béliers","Coordonn__es_Eleveur":"Olivier PODEVIN\npodevin_olivier@orange.fr\n06 74 28 67 13","Base_responsable":"BMN"},"geometry":{"type":"Polygon","coordinates":[[[0.7113361,47.3063914,0.0],[0.7115024,47.3062295,0.0],[0.712468,47.306566,0.0],[0.7137527,47.3070479,0.0],[0.7136508,47.3072153,0.0],[0.7113361,47.3063914,0.0]]]}},{"id":"2","type":"Feature","properties":{"Name":"PK 4+600 au PK 5+000 V2","Appellation":"Veigné\nDBT TOU 0047\nPetite parcelle V2","Superficie":"8550 m2","Occupation":"ACTIVE","Animaux":"2 brebis","Coordonn__es_Eleveur":"Olivier PODEVIN\npodevin_olivier@orange.fr\n06 74 28 67 13","Base_responsable":"BMN"},"geometry":{"type":"Polygon","coordinates":[[[0.7074678,47.3047614,0.0],[0.7112765,47.3060819,0.0],[0.7111692,47.3062819,0.0],[0.7076341,47.3051361,0.0],[0.7075107,47.3049906,0.0],[0.707323,47.3049251,0.0],[0.7074678,47.3047614,0.0]]]}},{"id":"3","type":"Feature","properties":{"Name":"PK 4+600 au PK 5+000 V1","Appellation":"Veigné\nDBT TOU 0047\nPetite parcelle V1","Superficie":"6492 m2","Occupation":"NON ACTIVE","Animaux":"","Coordonn__es_Eleveur":"Olivier PODEVIN\npodevin_olivier@orange.fr\n06 74 28 67 13","Base_responsable":"BMN"},"geometry":{"type":"Polygon","coordinates":[[[0.7079473,47.3046866,0.0],[0.7098678,47.305145,0.0],[0.7114771,47.3056833,0.0],[0.7113806,47.3059307,0.0],[0.7079473,47.3046866,0.0]]]}},{"id":"4","type":"Feature","properties":{"Name":"PK 5+000 au PK 5+600 V1","Appellation":"Veigné\nDBT TOU 0047\nGrande parcelle V1","Superficie":"23917 m2","Occupation":"ACTIVE","Animaux":"6 brebis","Coordonn__es_Eleveur":"Olivier PODEVIN\npodevin_olivier@orange.fr\n06 74 28 67 13","Base_responsable":"BMN"},"geometry":{"type":"Polygon","coordinates":[[[0.6988409,47.3006651,0.0],[0.6999996,47.3007233,0.0],[0.703229,47.3022002,0.0],[0.7038084,47.3023239,0.0],[0.7040659,47.3024694,0.0],[0.7042912,47.3026877,0.0],[0.7044521,47.3029714,0.0],[0.7052568,47.3032552,0.0],[0.7055143,47.3032406,0.0],[0.7057396,47.3033279,0.0],[0.7058361,47.3034371,0.0],[0.7059327,47.3036481,0.0],[0.7072631,47.3041646,0.0],[0.7075635,47.3041937,0.0],[0.707306,47.304492,0.0],[0.7038298,47.3031533,0.0],[0.7039264,47.3029787,0.0],[0.703862,47.3027677,0.0],[0.7035616,47.3025567,0.0],[0.7029822,47.3024476,0.0],[0.7025316,47.3022803,0.0],[0.6994417,47.3010216,0.0],[0.6988409,47.3006651,0.0]]]}},{"id":"5","type":"Feature","properties":{"Name":"PK 5+000 au PK 5+900 V2","Appellation":"Veigné\nDBT TOU 0047\nGrande parcelle V2","Superficie":"23917 m2","Occupation":"NON ACTIVE","Animaux":"0","Coordonn__es_Eleveur":"Olivier PODEVIN\npodevin_olivier@orange.fr\n06 74 28 67 13","Base_responsable":"BMN"},"geometry":{"type":"Polygon","coordinates":[[[0.7069045,47.3045248,0.0],[0.7015294,47.3032297,0.0],[0.7011324,47.3026623,0.0],[0.6994051,47.3017092,0.0],[0.6979567,47.3008506,0.0],[0.6967658,47.2999921,0.0],[0.6970018,47.2998029,0.0],[0.6986433,47.3008579,0.0],[0.699963,47.3015636,0.0],[0.7025272,47.3028078,0.0],[0.7044476,47.3036153,0.0],[0.7069045,47.3045248,0.0]]]}},{"id":"6","type":"Feature","properties":{"Name":"PK 7+400 au PK 7+700 V1+ V2","Appellation":"Val de l'Indre\nRBT 0076","Superficie":"9377 m2","Occupation":"ACTIVE","Animaux":"6 moutons","Coordonn__es_Eleveur":"Olivier PODEVIN\npodevin_olivier@orange.fr\n06 74 28 67 13","Base_responsable":"BMN"},"geometry":{"type":"Polygon","coordinates":[[[0.6834543,47.286432,0.0],[0.6843555,47.2863047,0.0],[0.6847257,47.2871744,0.0],[0.6850744,47.2874254,0.0],[0.6855142,47.2884625,0.0],[0.6854177,47.2885025,0.0],[0.6852728,47.2884588,0.0],[0.6847632,47.2875419,0.0],[0.6840444,47.2864066,0.0],[0.6838084,47.2864575,0.0],[0.6847351,47.2879972,0.0],[0.6845674,47.2880522,0.0],[0.6839747,47.2873181,0.0],[0.6834543,47.286432,0.0]]]}},{"id":"7","type":"Feature","properties":{"Name":"PK 68+600 au PK 68+700 V1","Appellation":"Scorbé-Clairvaux\nParcelle 68F\nRBT 0687","Superficie":"2157 m2","Occupation":"ACTIVE","Animaux":"2 brebis","Coordonn__es_Eleveur":"Olivier PODEVIN\npodevin_olivier@orange.fr\n06 74 28 67 13","Base_responsable":"BMN"},"geometry":{"type":"Polygon","coordinates":[[[0.38779,46.8145245,0.0],[0.3878141,46.8137572,0.0],[0.3879429,46.8137793,0.0],[0.3880019,46.8137536,0.0],[0.3881682,46.8137425,0.0],[0.3882057,46.8137903,0.0],[0.3882915,46.8137903,0.0],[0.3881923,46.8139573,0.0],[0.3883854,46.8142455,0.0],[0.388026,46.8142675,0.0],[0.3879643,46.8142584,0.0],[0.3878704,46.8142896,0.0],[0.3878731,46.8143134,0.0],[0.3879697,46.814341,0.0],[0.388074,46.814333,0.0],[0.3880877,46.8143777,0.0],[0.3878678,46.8145979,0.0],[0.38779,46.8145245,0.0]]]}},{"id":"8","type":"Feature","properties":{"Name":"PK 68+480 au PK 68+620 V2","Appellation":"Scorbé-Clairvaux\nBHD 685-2","Superficie":"7800 m2","Occupation":"ACTIVE","Animaux":"2 brebis","Coordonn__es_Eleveur":"Olivier PODEVIN\npodevin_olivier@orange.fr\n06 74 28 67 13","Base_responsable":"BMN"},"geometry":{"type":"Polygon","coordinates":[[[0.387181,46.8156731,0.0],[0.3863388,46.8154785,0.0],[0.3862583,46.81535,0.0],[0.3862583,46.8145571,0.0],[0.3863978,46.8144359,0.0],[0.3872239,46.8144175,0.0],[0.3872936,46.8145424,0.0],[0.387181,46.8156731,0.0]]]}},{"id":"9","type":"Feature","properties":{"Name":"PK 68+600 au PK 68+700 V2","Appellation":"Scorbé-Clairvaux\nParcelle 68M\nRBT 0687","Superficie":"2395 m2","Occupation":"NON ACTIVE","Animaux":"","Coordonn__es_Eleveur":"Olivier PODEVIN\npodevin_olivier@orange.fr\n06 74 28 67 13","Base_responsable":"BMN"},"geometry":{"type":"Polygon","coordinates":[[[0.3875888,46.8145622,0.0],[0.3874869,46.8146613,0.0],[0.3874171,46.8146392,0.0],[0.387389,46.814452,0.0],[0.3874037,46.8144079,0.0],[0.3873742,46.8143859,0.0],[0.3875083,46.8143455,0.0],[0.3875083,46.8143052,0.0],[0.3874118,46.8142831,0.0],[0.3873474,46.8143199,0.0],[0.3870738,46.8143235,0.0],[0.3870631,46.8142391,0.0],[0.3872562,46.8140886,0.0],[0.3872938,46.8138132,0.0],[0.3876049,46.8137875,0.0],[0.3875888,46.8145622,0.0]]]}},{"id":"10","type":"Feature","properties":{"Name":"PK 68+730 au PK 69+100 V1","Appellation":"Scorbé-Clairvaux\nParcelle 68P + 68Q\nRBT 0687","Superficie":"4735 m2","Occupation":"ACTIVE","Animaux":"4 béliers","Coordonn__es_Eleveur":"Olivier PODEVIN\npodevin_olivier@orange.fr\n06 74 28 67 13","Base_responsable":"BMN"},"geometry":{"type":"Polygon","coordinates":[[[0.3878323,46.8136052,0.0],[0.3879611,46.8102276,0.0],[0.3881542,46.8103597,0.0],[0.3881649,46.8117475,0.0],[0.3881327,46.8127902,0.0],[0.3881005,46.8135392,0.0],[0.3878323,46.8136052,0.0]]]}},{"id":"11","type":"Feature","properties":{"Name":"PK 69+100 au PK 69+880 V1","Appellation":"Scorbé-Clairvaux\nParcelle 69L\nRBT 0687","Superficie":"9121 m2","Occupation":"ACTIVE","Animaux":"10 brebis","Coordonn__es_Eleveur":"Olivier PODEVIN\npodevin_olivier@orange.fr\n06 74 28 67 13","Base_responsable":"BMN"},"geometry":{"type":"Polygon","coordinates":[[[0.3880645,46.8101587,0.0],[0.3881235,46.8101183,0.0],[0.3881235,46.8099677,0.0],[0.3879465,46.8098135,0.0],[0.3879787,46.8079484,0.0],[0.3880376,46.8066046,0.0],[0.3881664,46.8066192,0.0],[0.3882737,46.8067734,0.0],[0.3884346,46.8069093,0.0],[0.3885741,46.8071296,0.0],[0.3883166,46.8072801,0.0],[0.3881289,46.8093546,0.0],[0.3882952,46.8093619,0.0],[0.3882952,46.8094758,0.0],[0.388102,46.8094831,0.0],[0.3881074,46.8098723,0.0],[0.388263,46.8099017,0.0],[0.3882683,46.8100706,0.0],[0.388322,46.8101734,0.0],[0.3884239,46.8102505,0.0],[0.3883756,46.8102982,0.0],[0.3882522,46.8103276,0.0],[0.388145,46.8103055,0.0],[0.3880806,46.8102468,0.0],[0.3880645,46.8101587,0.0]]]}},{"id":"12","type":"Feature","properties":{"Name":"PK 69+100 au PK 69+880 V2","Appellation":"Scorbé-Clairvaux\nParcelle 69A\nRBT 0687","Superficie":"6342 m2","Occupation":"ACTIVE","Animaux":"10 brebis","Coordonn__es_Eleveur":"Olivier PODEVIN\npodevin_olivier@orange.fr\n06 74 28 67 13","Base_responsable":"BMN"},"geometry":{"type":"Polygon","coordinates":[[[0.3877948,46.8066,0.0],[0.3877197,46.809787,0.0],[0.3875159,46.8098604,0.0],[0.3875159,46.8101027,0.0],[0.3875481,46.8103891,0.0],[0.3874193,46.8103891,0.0],[0.3874193,46.8098457,0.0],[0.3876124,46.8095961,0.0],[0.3875266,46.8072242,0.0],[0.3872048,46.8070186,0.0],[0.3875373,46.8066588,0.0],[0.3877948,46.8066,0.0]]]}},{"id":"13","type":"Feature","properties":{"Name":"PK 78+100 V2","Appellation":"","Superficie":"","Occupation":"ACTIVE","Animaux":"6 moutons","Coordonn__es_Eleveur":"Champ des possibles\n 06 26 50 82 26","Base_responsable":"BMN"},"geometry":{"type":"Polygon","coordinates":[[[0.3880021,46.7315026,0.0],[0.3873476,46.7310687,0.0],[0.3855988,46.728436,0.0],[0.3857705,46.7280904,0.0],[0.3880021,46.7315026,0.0]]]}},{"id":"14","type":"Feature","properties":{"Name":"PK 190 V1","Appellation":"St GENIS","Superficie":"7540 m2","Occupation":"NON ACTIVE","Animaux":"","Coordonn__es_Eleveur":"06 37 50 96 88","Base_responsable":"BMV"},"geometry":{"type":"Polygon","coordinates":[[[0.0623556,45.7696161,0.0],[0.0627419,45.769878,0.0],[0.063568,45.7711577,0.0],[0.063686,45.7711503,0.0],[0.0644692,45.7723177,0.0],[0.0641688,45.7723925,0.0],[0.0623556,45.7696161,0.0]]]}},{"id":"15","type":"Feature","properties":{"Name":"PK 192 à 193 V2","Appellation":"St GENIS","Superficie":"42540 m2","Occupation":"ACTIVE","Animaux":"25 moutons","Coordonn__es_Eleveur":"06 37 50 96 88","Base_responsable":"BMV"},"geometry":{"type":"Polygon","coordinates":[[[0.056127,45.756383,0.0],[0.0554236,45.7548914,0.0],[0.055209,45.753643,0.0],[0.055343,45.753197,0.0],[0.0553542,45.7522875,0.0],[0.0550134,45.7519413,0.0],[0.0548536,45.7512621,0.0],[0.054839,45.750398,0.0],[0.0550455,45.7498117,0.0],[0.054949,45.7494224,0.0],[0.05478,45.748881,0.0],[0.0549785,45.7479031,0.0],[0.0547103,45.7473397,0.0],[0.0551395,45.7468569,0.0],[0.055547,45.752292,0.0],[0.056304,45.756345,0.0],[0.056127,45.756383,0.0]]]}},{"id":"16","type":"Feature","properties":{"Name":"PK 196 V2","Appellation":"ASNIERE","Superficie":"40720 m2","Occupation":"ACTIVE","Animaux":"17 moutons - 4 chèvres","Coordonn__es_Eleveur":"06 37 50 96 88","Base_responsable":"BMV"},"geometry":{"type":"Polygon","coordinates":[[[0.0612139,45.721421,0.0],[0.060892,45.721361,0.0],[0.0609135,45.7201925,0.0],[0.0605487,45.7200577,0.0],[0.0609135,45.7187843,0.0],[0.0612568,45.7188292,0.0],[0.0623083,45.7171663,0.0],[0.0625228,45.7172262,0.0],[0.0612139,45.721421,0.0]]]}},{"id":"17","type":"Feature","properties":{"Name":"PK 199+200 V1","Appellation":"ASNIERE (4 parcs)","Superficie":"31900 m2","Occupation":"ACTIVE","Animaux":"10 chèvres","Coordonn__es_Eleveur":"06 37 50 96 88","Base_responsable":"BMV"},"geometry":{"type":"Polygon","coordinates":[[[0.0705703,45.6938587,0.0],[0.0732418,45.6855322,0.0],[0.0734672,45.6857007,0.0],[0.0711604,45.6939037,0.0],[0.0705703,45.6938587,0.0]]]}},{"id":"18","type":"Feature","properties":{"Name":"PK 203 V1+V2 Nord","Appellation":"LINARS","Superficie":"19960 m2","Occupation":"NON ACTIVE","Animaux":"","Coordonn__es_Eleveur":"06 37 50 96 88","Base_responsable":"BMV"},"geometry":{"type":"Polygon","coordinates":[[[0.0723324,45.6572819,0.0],[0.0724504,45.658058,0.0],[0.072547,45.6584967,0.0],[0.0722841,45.6584929,0.0],[0.0722251,45.658043,0.0],[0.072091,45.657713,0.0],[0.072032,45.6574356,0.0],[0.0721608,45.6572631,0.0],[0.0723324,45.6572219,0.0],[0.0725363,45.6572069,0.0],[0.0726972,45.6572931,0.0],[0.0727938,45.6575743,0.0],[0.0729922,45.6584029,0.0],[0.0727777,45.6584629,0.0],[0.0726382,45.6579418,0.0],[0.072488,45.6572594,0.0],[0.0723324,45.6572819,0.0]]]}},{"id":"19","type":"Feature","properties":{"Name":"PK 203 V1+V2 Sud","Appellation":"","Superficie":"","Occupation":"ACTIVE","Animaux":"5 chèvres","Coordonn__es_Eleveur":"06 37 50 96 88","Base_responsable":"BMV"},"geometry":{"type":"Polygon","coordinates":[[[0.0718129,45.6553574,0.0],[0.071888,45.6555786,0.0],[0.0720543,45.6563023,0.0],[0.072226,45.6568309,0.0],[0.0724835,45.6567784,0.0],[0.0723172,45.656426,0.0],[0.0720275,45.6552786,0.0],[0.0721563,45.6552524,0.0],[0.0722904,45.6553386,0.0],[0.0726981,45.656606,0.0],[0.0725103,45.6568122,0.0],[0.0722689,45.6568534,0.0],[0.0720704,45.6568384,0.0],[0.0718988,45.656711,0.0],[0.0716788,45.6559123,0.0],[0.0716949,45.6554286,0.0],[0.0718129,45.6553574,0.0]]]}},{"id":"20","type":"Feature","properties":{"Name":"PK 213 V2","Appellation":"ROULLET St ESTEPHE","Superficie":"23500 m2","Occupation":"NON ACTIVE","Animaux":"","Coordonn__es_Eleveur":"06 37 50 96 88","Base_responsable":"BMV"},"geometry":{"type":"Polygon","coordinates":[[[0.0634927,45.5696828,0.0],[0.063659,45.5710722,0.0],[0.0638628,45.5722401,0.0],[0.0641257,45.5730775,0.0],[0.0645602,45.5742491,0.0],[0.0647587,45.5747259,0.0],[0.0648606,45.576472,0.0],[0.0645977,45.576457,0.0],[0.0645441,45.575169,0.0],[0.0639915,45.5741289,0.0],[0.0638145,45.573667,0.0],[0.0636214,45.5730174,0.0],[0.0633317,45.5717331,0.0],[0.0631869,45.5707117,0.0],[0.063262,45.5700546,0.0],[0.0633746,45.569649,0.0],[0.0634927,45.5696828,0.0]]]}},{"id":"21","type":"Feature","properties":{"Name":"PK 215 V1","Appellation":"CLAIX V1","Superficie":"2055 m2","Occupation":"NON ACTIVE","Animaux":"","Coordonn__es_Eleveur":"06 37 50 96 88","Base_responsable":"BMV"},"geometry":{"type":"Polygon","coordinates":[[[0.0593962,45.5418562,0.0],[0.0598576,45.5419238,0.0],[0.0608553,45.5440353,0.0],[0.0612416,45.545493,0.0],[0.061778,45.5476945,0.0],[0.0615527,45.5476645,0.0],[0.0593962,45.5418562,0.0]]]}},{"id":"22","type":"Feature","properties":{"Name":"PK 215 V2","Appellation":"CLAIX V2","Superficie":"24500 m2","Occupation":"NON ACTIVE","Animaux":"","Coordonn__es_Eleveur":"06 37 50 96 88","Base_responsable":"BMV"},"geometry":{"type":"Polygon","coordinates":[[[0.0591495,45.5419013,0.0],[0.0611987,45.5473639,0.0],[0.060909,45.547424,0.0],[0.0602974,45.5459363,0.0],[0.0592246,45.5429608,0.0],[0.0588383,45.5420591,0.0],[0.0591495,45.5419013,0.0]]]}},{"id":"23","type":"Feature","properties":{"Name":"PK 216 V1","Appellation":"PLASSAC","Superficie":"10390 m2","Occupation":"ACTIVE","Animaux":"10 moutons + 4 chèvres","Coordonn__es_Eleveur":"06 37 50 96 88","Base_responsable":"BMV"},"geometry":{"type":"Polygon","coordinates":[[[0.0573167,45.5363278,0.0],[0.0578102,45.5366284,0.0],[0.0584969,45.536433,0.0],[0.0585612,45.5387325,0.0],[0.0590333,45.5401453,0.0],[0.0586685,45.5401904,0.0],[0.0573167,45.5363278,0.0]]]}}]}