{"type":"FeatureCollection","features":[{"id":"0","type":"Feature","properties":{"id":null,"Name":null,"description":null,"timestamp":"NaT","begin":"NaT","end":"NaT","altitudeMode":null,"tessellate":"-1","extrude":"0","visibility":"-1","drawOrder":null,"icon":null,"fid":1.0,"voie":"RMS1","m_from":0.400965,"m_to":6.0713077,"layer":"rac_cal"},"geometry":{"type":"LineString","coordinates":[[0.647823586111112,47.2556182333333],[0.645714497222223,47.246331825],[0.645746238888889,47.2436337916667],[0.646368847222222,47.24101465],[0.64739268888889,47.2387820527778],[0.64881116388889,47.2367013583333],[0.656000830555557,47.2289879777778],[0.657498391666667,47.2271358305556],[0.658941891666667,47.2245751305556],[0.659791055555556,47.2218479166667],[0.660006955555556,47.2196486194444],[0.659816847222222,47.2174482194444],[0.658208125,47.2119313833333],[0.657162563888889,47.2071562361111]]}},{"id":"1","type":"Feature","properties":{"id":null,"Name":null,"description":null,"timestamp":"NaT","begin":"NaT","end":"NaT","altitudeMode":null,"tessellate":"-1","extrude":"0","visibility":"-1","drawOrder":null,"icon":null,"fid":2.0,"voie":"RMS2","m_from":0.0,"m_to":5.268052,"layer":"rac_cal"},"geometry":{"type":"LineString","coordinates":[[0.648641858333333,47.2589109805556],[0.647307516666668,47.2543188472222],[0.645661244444444,47.2500064388889],[0.645203230555557,47.2484168361111],[0.644921808333334,47.2458155388889],[0.645199461111112,47.2432590583333],[0.646098183333333,47.2405852111111],[0.647597111111112,47.2380392444444],[0.649024636111111,47.2363147083333],[0.655919966666668,47.2289533111111],[0.657161994444444,47.2272636527778],[0.65814991388889,47.2254498861111],[0.658976705555557,47.2230411777778],[0.659298530555556,47.220577225],[0.659184180555556,47.2185541611111],[0.65843728888889,47.214099475]]}},{"id":"2","type":"Feature","properties":{"id":null,"Name":null,"description":null,"timestamp":"NaT","begin":"NaT","end":"NaT","altitudeMode":null,"tessellate":"-1","extrude":"0","visibility":"-1","drawOrder":null,"icon":null,"fid":3.0,"voie":"RCA1","m_from":0.0,"m_to":4.0745127,"layer":"rac_cal"},"geometry":{"type":"LineString","coordinates":[[0.592422913888889,47.0245168194444],[0.587858719444444,47.0311553277778],[0.586474202777779,47.0339204277778],[0.585952358333333,47.035776175],[0.585732430555557,47.0376599138889],[0.585817122222222,47.0395487583333],[0.586205438888889,47.04141975],[0.586853294444444,47.0431642388889],[0.587739263888889,47.0448112916667],[0.58886698888889,47.0463877888889],[0.59026238888889,47.0479141027778],[0.59240823888889,47.0497364],[0.601766783333334,47.0566301111111]]}},{"id":"3","type":"Feature","properties":{"id":null,"Name":null,"description":null,"timestamp":"NaT","begin":"NaT","end":"NaT","altitudeMode":null,"tessellate":"-1","extrude":"0","visibility":"-1","drawOrder":null,"icon":null,"fid":4.0,"voie":"RCA2","m_from":0.36351,"m_to":3.97854,"layer":"rac_cal"},"geometry":{"type":"LineString","coordinates":[[0.590315375,47.0274537638889],[0.587305525,47.03192085],[0.586515033333333,47.0336376972222],[0.585969055555556,47.0354444055556],[0.585703222222222,47.0371899138889],[0.585684466666668,47.0388998472222],[0.586130255555557,47.04293965],[0.586508852777779,47.0444924833333],[0.587045705555556,47.0456975888889],[0.587784155555557,47.0468517833333],[0.589823125,47.0489455555556],[0.591338305555557,47.0500090277778],[0.596797627777779,47.0532639277778],[0.600334352777778,47.0556661638889]]}},{"id":"4","type":"Feature","properties":{"id":null,"Name":null,"description":null,"timestamp":"NaT","begin":"NaT","end":"NaT","altitudeMode":null,"tessellate":"-1","extrude":"0","visibility":"-1","drawOrder":null,"icon":null,"fid":5.0,"voie":"RMA1","m_from":0.0,"m_to":6.158866,"layer":"rac_cal"},"geometry":{"type":"LineString","coordinates":[[0.349508522222222,46.6083100305556],[0.35075875,46.6115745861111],[0.352576422222222,46.615474525],[0.352908394444445,46.6167133361111],[0.353009502777779,46.6179711555556],[0.352758994444444,46.6197616083333],[0.349483322222222,46.6322997611111],[0.349165911111111,46.6349441944444],[0.349227380555557,46.6376422555556],[0.349545933333334,46.6397449166667],[0.350100108333332,46.6418242444444],[0.352561325,46.6477519],[0.353218530555556,46.6499558166667],[0.354646672222222,46.6628277138889]]}},{"id":"5","type":"Feature","properties":{"id":null,"Name":null,"description":null,"timestamp":"NaT","begin":"NaT","end":"NaT","altitudeMode":null,"tessellate":"-1","extrude":"0","visibility":"-1","drawOrder":null,"icon":null,"fid":6.0,"voie":"RMA2","m_from":0.206184,"m_to":6.775628,"layer":"rac_cal"},"geometry":{"type":"LineString","coordinates":[[0.350032147222221,46.6099812527778],[0.352330447222222,46.6174121527778],[0.352582555555557,46.6195171138889],[0.352331069444445,46.6211722583333],[0.349422977777779,46.6323397166667],[0.349113652777779,46.634942975],[0.349166891666668,46.6375546805556],[0.34946673888889,46.6396162138889],[0.349992733333333,46.6416561444444],[0.352261372222221,46.6472029194444],[0.352846905555556,46.64923305],[0.353076630555557,46.6510713611111],[0.35335223888889,46.6579109194444],[0.35458186388889,46.6637009916667],[0.355284738888889,46.6683636166667]]}},{"id":"6","type":"Feature","properties":{"id":null,"Name":null,"description":null,"timestamp":"NaT","begin":"NaT","end":"NaT","altitudeMode":null,"tessellate":"-1","extrude":"0","visibility":"-1","drawOrder":null,"icon":null,"fid":7.0,"voie":"RFN1","m_from":0.0,"m_to":4.0729798,"layer":"rac_cal"},"geometry":{"type":"LineString","coordinates":[[0.214700808333334,46.4990600166667],[0.221932794444444,46.5041872833333],[0.22352418888889,46.5050459472222],[0.229221122222223,46.5075799027778],[0.231065661111111,46.5087860944444],[0.232616458333334,46.5101754833333],[0.234257380555557,46.5124221027778],[0.24282126388889,46.5287923138889]]}},{"id":"7","type":"Feature","properties":{"id":null,"Name":null,"description":null,"timestamp":"NaT","begin":"NaT","end":"NaT","altitudeMode":null,"tessellate":"-1","extrude":"0","visibility":"-1","drawOrder":null,"icon":null,"fid":8.0,"voie":"RFN2","m_from":0.27051,"m_to":2.2476658,"layer":"rac_cal"},"geometry":{"type":"LineString","coordinates":[[0.217175411111111,46.5007951611111],[0.221870152777779,46.5043472222222],[0.227554844444444,46.5068901666667],[0.229982544444444,46.5083866777778],[0.232134386111111,46.5104717638889],[0.234159894444444,46.5136682305556]]}},{"id":"8","type":"Feature","properties":{"id":null,"Name":null,"description":null,"timestamp":"NaT","begin":"NaT","end":"NaT","altitudeMode":null,"tessellate":"-1","extrude":"0","visibility":"-1","drawOrder":null,"icon":null,"fid":9.0,"voie":"RFS1","m_from":0.0,"m_to":3.4394609,"layer":"rac_cal"},"geometry":{"type":"LineString","coordinates":[[0.246599158333333,46.5147691583333],[0.236530947222223,46.5096356388889],[0.233759583333335,46.5077953888889],[0.231321452777778,46.5057426138889],[0.229574327777779,46.5038966333333],[0.228124619444445,46.5019823222222],[0.220971113888889,46.4903410388889]]}},{"id":"9","type":"Feature","properties":{"id":null,"Name":null,"description":null,"timestamp":"NaT","begin":"NaT","end":"NaT","altitudeMode":null,"tessellate":"-1","extrude":"0","visibility":"-1","drawOrder":null,"icon":null,"fid":10.0,"voie":"RFS2","m_from":0.0,"m_to":4.002403,"layer":"rac_cal"},"geometry":{"type":"LineString","coordinates":[[0.247702627777779,46.5152899472222],[0.237396069444444,46.5113281805556],[0.234759047222223,46.5097904416667],[0.232511463888889,46.5079229666667],[0.227813352777779,46.5031600861111],[0.225871391666667,46.5006635],[0.22476955,46.4986899166667],[0.221223819444445,46.4911066],[0.219007477777778,46.4869936]]}},{"id":"10","type":"Feature","properties":{"id":null,"Name":null,"description":null,"timestamp":"NaT","begin":"NaT","end":"NaT","altitudeMode":null,"tessellate":"-1","extrude":"0","visibility":"-1","drawOrder":null,"icon":null,"fid":11.0,"voie":"RJ2","m_from":0.0,"m_to":2.5594368,"layer":"rac_cal"},"geometry":{"type":"LineString","coordinates":[[0.120843758333334,45.9046508222222],[0.123705813888891,45.9092308],[0.124422311111111,45.9108192361111],[0.124926005555557,45.912447025],[0.126542502777779,45.92078905],[0.126595825,45.9229041055556],[0.126289572222224,45.9270807055556]]}},{"id":"11","type":"Feature","properties":{"id":null,"Name":null,"description":null,"timestamp":"NaT","begin":"NaT","end":"NaT","altitudeMode":null,"tessellate":"-1","extrude":"0","visibility":"-1","drawOrder":null,"icon":null,"fid":12.0,"voie":"RV1","m_from":0.124581,"m_to":4.438221,"layer":"rac_cal"},"geometry":{"type":"LineString","coordinates":[[0.123123583333334,45.8284934666667],[0.117638897222223,45.83176985],[0.115571225,45.8333754611111],[0.113697388888891,45.8351496555556],[0.112050572222222,45.8370832388889],[0.110663788888889,45.8391637777778],[0.109587208333333,45.8413321861111],[0.108843719444444,45.8435216611111],[0.108444969444446,45.8455278194444],[0.10830581388889,45.8475509055556],[0.108427411111112,45.8495745444444],[0.108808802777779,45.8515823555556],[0.109990158333333,45.8548543333333],[0.113910630555556,45.863272575]]}},{"id":"12","type":"Feature","properties":{"id":null,"Name":null,"description":null,"timestamp":"NaT","begin":"NaT","end":"NaT","altitudeMode":null,"tessellate":"-1","extrude":"0","visibility":"-1","drawOrder":null,"icon":null,"fid":13.0,"voie":"RCO1","m_from":0.0,"m_to":5.823341,"layer":"rac_cal"},"geometry":{"type":"LineString","coordinates":[[0.099567958333333,45.6011614583333],[0.097226472222222,45.595173975],[0.096073561111111,45.5936189805556],[0.094505641666668,45.5922546388889],[0.091655658333333,45.5907346194444],[0.08036951388889,45.5868519916667],[0.076765583333335,45.5852990861111],[0.074509141666668,45.5840376166667],[0.072397752777779,45.5825927194444],[0.070505130555557,45.5810054166667],[0.068883947222223,45.5793304277778],[0.067618725,45.5777130527778],[0.066566147222223,45.5760222222222],[0.065734755555556,45.5742716777778],[0.065131294444445,45.5724756583333],[0.064689236111111,45.570110825],[0.063591077777779,45.5597089055556]]}},{"id":"13","type":"Feature","properties":{"id":null,"Name":null,"description":null,"timestamp":"NaT","begin":"NaT","end":"NaT","altitudeMode":null,"tessellate":"-1","extrude":"0","visibility":"-1","drawOrder":null,"icon":null,"fid":14.0,"voie":"RCO2","m_from":0.29903,"m_to":5.889535,"layer":"rac_cal"},"geometry":{"type":"LineString","coordinates":[[0.098433791666667,45.5988777583333],[0.095634347222224,45.5940324083333],[0.094458513888889,45.5927455277778],[0.092984005555556,45.591620425],[0.090425111111112,45.5903497611111],[0.07884288888889,45.5863794472222],[0.075487275,45.5849724444444],[0.073305794444445,45.5837897277778],[0.071257208333335,45.5824288638889],[0.069415188888889,45.5809294861111],[0.067798616666667,45.5793069805556],[0.066395733333334,45.5775375916667],[0.065283208333334,45.5757180388889],[0.064438436111111,45.5738288027778],[0.06387005,45.5718892583333],[0.063552516666668,45.5692893694444],[0.063789111111111,45.5643857083333],[0.063533494444445,45.5597112666667]]}},{"id":"14","type":"Feature","properties":{"id":null,"Name":null,"description":null,"timestamp":"NaT","begin":"NaT","end":"NaT","altitudeMode":null,"tessellate":"-1","extrude":"0","visibility":"-1","drawOrder":null,"icon":null,"fid":17.0,"voie":"LGV1","m_from":0.0,"m_to":301.075,"layer":"v1_cal"},"geometry":{"type":"LineString","coordinates":[[0.750305511,47.33718616],[0.737382586,47.32617619],[0.734888292,47.32363099],[0.728404578,47.31619824],[0.726136961,47.31409046],[0.723607089,47.31212573],[0.720080208,47.30987928],[0.716211314,47.3079104],[0.713041447,47.30660279],[0.704527431,47.3034986],[0.699879194,47.30135351],[0.694937303,47.2983042],[0.692531389,47.29644928],[0.690318667,47.29448629],[0.687270575,47.2912224],[0.684755,47.28775479],[0.678885867,47.27723581],[0.672856697,47.26882109],[0.671008436,47.26593426],[0.669108761,47.2622882],[0.667628869,47.25855318],[0.662165378,47.24006416],[0.661140347,47.23575626],[0.660620564,47.23208396],[0.659643267,47.22035463],[0.656270736,47.20204387],[0.655971869,47.19867552],[0.655941569,47.19534602],[0.656281825,47.19112324],[0.657044478,47.18692621],[0.658225667,47.18277448],[0.659858186,47.17860132],[0.661496356,47.17527435],[0.663434539,47.17197476],[0.673439286,47.15747566],[0.676124422,47.15302062],[0.677795692,47.14960393],[0.679141875,47.14621438],[0.6802041,47.14277814],[0.680995031,47.13921693],[0.681554669,47.13473121],[0.681635164,47.13022956],[0.681236136,47.12573578],[0.680348694,47.12122931],[0.678995142,47.11682317],[0.677176517,47.11249574],[0.674927342,47.10831157],[0.67218485,47.10416803],[0.6686668,47.0997863],[0.66468185,47.09564901],[0.6602686,47.09177662],[0.655328003,47.08809096],[0.651210747,47.08542934],[0.646858406,47.0829486],[0.626454406,47.07287874],[0.618654442,47.06845204],[0.613800272,47.06521491],[0.589246408,47.04768957],[0.583420292,47.04316396],[0.580484075,47.04050733],[0.577796583,47.0377844],[0.575357,47.03500689],[0.573133653,47.03214595],[0.570791875,47.02867256],[0.559624681,47.01064074],[0.556619425,47.00643416],[0.55429795,47.0037115],[0.551744967,47.00108773],[0.549010483,46.99860723],[0.546037819,46.99621653],[0.533768111,46.98747054],[0.529764794,46.9849288],[0.525574608,46.98253235],[0.518881961,46.97918636],[0.495326764,46.96863818],[0.491304175,46.96661041],[0.487402175,46.96440378],[0.483546297,46.96195651],[0.479816892,46.95929298],[0.470707739,46.95212984],[0.466906119,46.94885369],[0.462425008,46.94430319],[0.458580228,46.9395388],[0.455999658,46.93564697],[0.451095817,46.9271483],[0.447871828,46.92256557],[0.445021967,46.91916969],[0.437870269,46.91145698],[0.434339531,46.90698562],[0.403991972,46.86081228],[0.396648283,46.85084953],[0.394153275,46.8470311],[0.39127055,46.84143189],[0.390126403,46.83856755],[0.389183839,46.83566877],[0.388435583,46.8326979],[0.387911997,46.829795],[0.387585556,46.82683343],[0.387466606,46.82386458],[0.388256944,46.79667896],[0.388670336,46.79106025],[0.389896703,46.78341103],[0.393422864,46.76843416],[0.394135739,46.76300878],[0.394586478,46.75657799],[0.394618703,46.75324587],[0.394300881,46.74915428],[0.393609964,46.74517512],[0.392738122,46.74185156],[0.391604078,46.73856555],[0.390231544,46.73536977],[0.388611231,46.73222933],[0.386064467,46.7281302],[0.375442014,46.71305979],[0.373343975,46.70985995],[0.361255142,46.68812222],[0.358978133,46.68342728],[0.357357536,46.67897525],[0.356195042,46.67431897],[0.354037003,46.65809072],[0.35324805,46.65398401],[0.350120089,46.64284443],[0.349035178,46.63982842],[0.347772983,46.63693929],[0.345587403,46.63283934],[0.343045825,46.62893649],[0.340020897,46.62504696],[0.336602256,46.62131557],[0.331489472,46.61664204],[0.303699658,46.5942784],[0.299073561,46.59020361],[0.296048678,46.58710497],[0.288635744,46.5786212],[0.283874092,46.57355964],[0.253849278,46.5442589],[0.249793594,46.53958858],[0.246244164,46.53462558],[0.216969725,46.48327439],[0.214371364,46.47807521],[0.212256722,46.4728291],[0.211086694,46.46922801],[0.210110808,46.46550785],[0.209377147,46.46185207],[0.208841419,46.45799902],[0.208501636,46.45287364],[0.208256325,46.43527034],[0.207972556,46.43158318],[0.207447942,46.4277728],[0.206466722,46.42304833],[0.205182269,46.41854221],[0.203532622,46.41400036],[0.201524922,46.40948097],[0.193353767,46.3927138],[0.191349883,46.38924289],[0.189047489,46.38586189],[0.184756725,46.38066231],[0.169614925,46.36481459],[0.165255611,46.35995947],[0.159684336,46.35298876],[0.154691475,46.3457614],[0.150716767,46.33905781],[0.147287575,46.33225885],[0.145376575,46.3278613],[0.138597897,46.31089668],[0.136579783,46.30466095],[0.135205447,46.2983418],[0.134481597,46.29197087],[0.134415317,46.28549051],[0.134785861,46.28081662],[0.135506167,46.27616243],[0.139736097,46.25825742],[0.141048847,46.25097508],[0.141575281,46.24644186],[0.141875481,46.24203398],[0.141967733,46.23753149],[0.141848281,46.23311946],[0.141131106,46.22534618],[0.139798914,46.21774799],[0.137981097,46.21065531],[0.134379897,46.19940468],[0.133639769,46.1962053],[0.13313755,46.19298381],[0.132835114,46.18727343],[0.133427539,46.16886348],[0.133054531,46.15301696],[0.132611497,46.14902111],[0.127916397,46.11613491],[0.126931728,46.10485571],[0.125449861,46.09559295],[0.125097222,46.09249725],[0.124963353,46.08925824],[0.1250721,46.08597374],[0.127373331,46.06726827],[0.127700914,46.06182463],[0.127712872,46.05637624],[0.127446431,46.05138143],[0.122574081,45.99213618],[0.122310617,45.98700777],[0.122321869,45.97206022],[0.122531,45.96675045],[0.128372658,45.90614959],[0.128529778,45.90196316],[0.128287183,45.89782379],[0.127796506,45.89446369],[0.127032494,45.89108294],[0.125986983,45.88769314],[0.124690381,45.88439254],[0.109959361,45.85560516],[0.107784286,45.85070528],[0.103186011,45.83879531],[0.093543578,45.80911495],[0.092408292,45.80611073],[0.091103872,45.80328189],[0.089612481,45.80054671],[0.087892433,45.79782876],[0.085969856,45.795178],[0.083816514,45.7925635],[0.080010367,45.78860247],[0.069721969,45.77914637],[0.066650869,45.77576677],[0.063921772,45.77224639],[0.061111678,45.76785183],[0.058834053,45.76330887],[0.057104492,45.75864905],[0.055951531,45.75399389],[0.055383019,45.74978273],[0.055256831,45.74550878],[0.055575981,45.74128486],[0.056324789,45.73713298],[0.057504772,45.73298416],[0.073492572,45.68423176],[0.074229592,45.68125934],[0.074738328,45.67826315],[0.075017325,45.67525207],[0.075064803,45.67218991],[0.074851397,45.66890589],[0.074390239,45.66577006],[0.071226844,45.65244629],[0.070521208,45.64810993],[0.070321706,45.64406267],[0.070679306,45.63127851],[0.070559242,45.62745184],[0.069892803,45.62270199],[0.067045042,45.61084796],[0.0663279,45.60637656],[0.066124808,45.60300448],[0.06600375,45.58886767],[0.063164425,45.55524845],[0.062520147,45.55162902],[0.061571936,45.54813446],[0.055606442,45.53252478],[0.054665433,45.52944484],[0.053971222,45.52633281],[0.053459378,45.52247971],[0.053325667,45.51861095],[0.054544606,45.50296794],[0.054587225,45.50008591],[0.054424253,45.49725103],[0.053848528,45.49326381],[0.052884269,45.48935964],[0.051514467,45.4854695],[0.049776961,45.48170006],[0.047796706,45.47823183],[0.045553147,45.47494343],[0.034945267,45.46199493],[0.005448328,45.42083261],[-0.013004806,45.39761534],[-0.015726575,45.39379411],[-0.018063472,45.38999508],[-0.020160225,45.38598314],[-0.021928942,45.3818934],[-0.023363897,45.3777393],[-0.024470247,45.37348988],[-0.025077975,45.37023244],[-0.025491081,45.36686951],[-0.026267792,45.35319428],[-0.026583372,45.34991454],[-0.027439764,45.34527086],[-0.028787858,45.34063963],[-0.031159947,45.33493727],[-0.034267289,45.3294136],[-0.038083392,45.32411551],[-0.042575319,45.31908825],[-0.056007653,45.30621815],[-0.060047164,45.30279096],[-0.064478611,45.29942749],[-0.069217078,45.29621419],[-0.093497242,45.28093451],[-0.118329397,45.26488319],[-0.122410911,45.26203843],[-0.126057778,45.2590906],[-0.130211469,45.25510528],[-0.133851561,45.2508244],[-0.151992,45.22496897],[-0.155177578,45.22086306],[-0.158165561,45.21761712],[-0.161461856,45.21452393],[-0.165050947,45.21159815],[-0.168869192,45.20888436],[-0.172889925,45.20638861],[-0.177189983,45.20406309],[-0.181703422,45.20194931],[-0.186352861,45.20007792],[-0.247660956,45.18023823],[-0.254152439,45.17775705],[-0.260187633,45.17491409],[-0.263996481,45.1728076],[-0.267570717,45.17057204],[-0.270948617,45.16818873],[-0.274118206,45.16566642],[-0.278402669,45.16169765],[-0.291695586,45.1477872],[-0.295980706,45.144102],[-0.300783736,45.14062506],[-0.305992133,45.13745419],[-0.311514053,45.13463764],[-0.331941533,45.12619016],[-0.338016264,45.12331408],[-0.341863436,45.12117253],[-0.345562847,45.11883628],[-0.349049031,45.11634112],[-0.352227719,45.11376633],[-0.355953317,45.11028961],[-0.359286528,45.10661875],[-0.369670919,45.09268582],[-0.373722106,45.08748161],[-0.378922603,45.08123922],[-0.386965031,45.07216578],[-0.389241969,45.0693047],[-0.391755653,45.06556804],[-0.404956072,45.04396168],[-0.414087747,45.03024353],[-0.415431647,45.02762244],[-0.416506119,45.02489281],[-0.419079603,45.01534307],[-0.419900764,45.01284316],[-0.420943136,45.01043216],[-0.423748603,45.00492968],[-0.425146717,45.00109826],[-0.426024953,44.99659952],[-0.426655214,44.98693226],[-0.427197133,44.98421235],[-0.428007508,44.98157239],[-0.429149603,44.97885371],[-0.430583117,44.97620559],[-0.437061558,44.96652844],[-0.439405139,44.96379861],[-0.442070817,44.96122215],[-0.468153858,44.93851008],[-0.470196261,44.93696919],[-0.472276833,44.93586191],[-0.474645014,44.93499695],[-0.495188692,44.92967528]]}},{"id":"15","type":"Feature","properties":{"id":null,"Name":null,"description":null,"timestamp":"NaT","begin":"NaT","end":"NaT","altitudeMode":null,"tessellate":"-1","extrude":"0","visibility":"-1","drawOrder":null,"icon":null,"fid":18.0,"voie":"LGV2","m_from":0.0,"m_to":300.895,"layer":"v2_cal"},"geometry":{"type":"LineString","coordinates":[[0.750263456,47.33721094],[0.737334325,47.32619994],[0.734837531,47.32365215],[0.728354958,47.31622073],[0.726090531,47.31411583],[0.723564069,47.31215375],[0.720092572,47.30993926],[0.716233353,47.30796909],[0.713128275,47.30668192],[0.704440156,47.3035106],[0.699790464,47.30135782],[0.694894086,47.29833204],[0.692527533,47.2965098],[0.690308733,47.29454643],[0.687251128,47.29128148],[0.684726414,47.28781209],[0.678805072,47.2772104],[0.672831292,47.26887912],[0.670953128,47.26594925],[0.669051983,47.26230026],[0.667570881,47.25856216],[0.662107028,47.24007184],[0.661073081,47.23571665],[0.660556911,47.23204169],[0.659577622,47.2203138],[0.656211578,47.20204738],[0.655914733,47.19872182],[0.655880817,47.19539019],[0.656216831,47.19116453],[0.656985775,47.18691989],[0.658167747,47.18276544],[0.659782178,47.17863263],[0.661440628,47.17526038],[0.663353817,47.17199991],[0.673385189,47.15745883],[0.676068636,47.15300665],[0.677719731,47.14963533],[0.679084131,47.14620486],[0.680157411,47.14272659],[0.680936053,47.13921201],[0.681495336,47.13472921],[0.681575758,47.13023052],[0.681176992,47.12573972],[0.680301294,47.12128056],[0.678953375,47.11687659],[0.6771405,47.1125511],[0.674872339,47.10832692],[0.672160986,47.10422636],[0.668649942,47.09984576],[0.664633611,47.09567261],[0.66018075,47.09176841],[0.655239514,47.08808759],[0.651171383,47.08545968],[0.646873736,47.08300827],[0.626418797,47.07291108],[0.618663089,47.06851234],[0.613803514,47.06527543],[0.589158036,47.04768487],[0.583374028,47.04318925],[0.580512428,47.04060409],[0.577817483,47.03788207],[0.575370381,47.03510524],[0.573110014,47.03220432],[0.570737436,47.02868853],[0.559543919,47.01061585],[0.556535875,47.00641405],[0.554247719,47.00373298],[0.551696619,47.00111121],[0.548964214,46.99863255],[0.545980917,46.9962339],[0.533726703,46.98749954],[0.529725639,46.98495921],[0.525537839,46.9825641],[0.518794333,46.97919494],[0.4953471,46.96869715],[0.491267836,46.96664231],[0.487363283,46.96443427],[0.483457911,46.96195379],[0.479728917,46.95928667],[0.470535119,46.95205298],[0.466819419,46.9488416],[0.462340244,46.94428589],[0.458498047,46.93951649],[0.455944956,46.93566243],[0.451067589,46.9272057],[0.447850503,46.92262436],[0.445006147,46.9192293],[0.437819497,46.91147764],[0.434286475,46.90700344],[0.403938308,46.86082923],[0.396624119,46.8509078],[0.394123472,46.84708806],[0.391214061,46.84144351],[0.390069089,46.8385773],[0.389125947,46.83567667],[0.3883868,46.83274833],[0.387853314,46.82979901],[0.387526667,46.82683553],[0.387407592,46.82386469],[0.388194675,46.79676794],[0.388606633,46.79110211],[0.389819603,46.78349434],[0.393364372,46.76842876],[0.3940733,46.76305155],[0.394523089,46.75666663],[0.394561003,46.75329173],[0.394253311,46.74924749],[0.393561506,46.74522574],[0.392693728,46.74190389],[0.391563928,46.73861948],[0.390175503,46.73538228],[0.388556178,46.73224392],[0.385983256,46.7281067],[0.375360642,46.71303665],[0.373289664,46.70987558],[0.36122295,46.68817854],[0.358939889,46.68348179],[0.357300006,46.67898365],[0.35615405,46.67441363],[0.353978419,46.65809479],[0.353189975,46.65399068],[0.350062603,46.64285315],[0.348995717,46.63988256],[0.347696681,46.63690914],[0.345508228,46.63281298],[0.342906428,46.62883322],[0.339904297,46.62498962],[0.336516825,46.62130126],[0.331360769,46.61659872],[0.303654797,46.59430459],[0.299063936,46.59026377],[0.295998981,46.58712655],[0.288551344,46.57860429],[0.283825414,46.5735824],[0.253800225,46.54428108],[0.249679631,46.53952888],[0.24616405,46.53460083],[0.216933114,46.48332186],[0.214354189,46.47817323],[0.212215428,46.47288255],[0.211016322,46.46919191],[0.210042708,46.46546974],[0.209296244,46.46172259],[0.208778194,46.45795708],[0.208444231,46.45291934],[0.208199806,46.4353167],[0.207909244,46.43154124],[0.207382164,46.42773283],[0.206430781,46.42314393],[0.205125042,46.41855104],[0.203476139,46.41401127],[0.201489872,46.40953653],[0.193276375,46.39268541],[0.191296222,46.38925907],[0.188995256,46.3858803],[0.184742239,46.38072209],[0.169636969,46.36491212],[0.165238425,46.36001884],[0.159602583,46.35296733],[0.154611717,46.34573661],[0.150662053,46.33907214],[0.147231878,46.33227122],[0.145285419,46.32778661],[0.138524875,46.31086334],[0.136510394,46.30462415],[0.135132686,46.29825689],[0.1344177,46.29188265],[0.134358833,46.2854443],[0.134727628,46.28081337],[0.135439669,46.27620173],[0.139668475,46.25829581],[0.140971675,46.25110551],[0.141500292,46.24661896],[0.141813022,46.24212267],[0.141909672,46.23766668],[0.141792153,46.23316589],[0.141084881,46.22543956],[0.139741158,46.21775402],[0.137936914,46.21070754],[0.134310644,46.19936785],[0.133581975,46.19621074],[0.133079442,46.19298714],[0.132776831,46.18727306],[0.133369006,46.16877344],[0.132992711,46.15297427],[0.132553428,46.14902505],[0.127858386,46.11613866],[0.126868258,46.10481424],[0.125391928,46.0955971],[0.12504265,46.09254443],[0.124904978,46.08921331],[0.125020439,46.08588178],[0.127311164,46.06731067],[0.127641253,46.06186874],[0.127655825,46.05642197],[0.127381125,46.05129379],[0.122512567,45.99209347],[0.122254708,45.9870985],[0.122262847,45.97214998],[0.122466942,45.96683853],[0.128310936,45.90619217],[0.128472136,45.90200848],[0.128229286,45.89782679],[0.127730619,45.89442424],[0.126963597,45.89104612],[0.125945906,45.88774646],[0.124653572,45.88444737],[0.123042883,45.88107444],[0.109883367,45.85557611],[0.107694219,45.85062922],[0.10309895,45.83871753],[0.093487158,45.80912438],[0.092370742,45.80616537],[0.091049167,45.80329534],[0.089534347,45.80052053],[0.087812439,45.79780548],[0.085888247,45.79515774],[0.083767167,45.7925847],[0.079963658,45.78862644],[0.069674214,45.77916928],[0.066600986,45.77578729],[0.063898697,45.77230481],[0.061081767,45.76790868],[0.058816311,45.76340683],[0.057075158,45.7587456],[0.055902581,45.7540438],[0.055329025,45.74983005],[0.055197947,45.74555319],[0.055512678,45.74132611],[0.056267719,45.73712643],[0.057434122,45.73301908],[0.073423033,45.68426819],[0.074163014,45.68129797],[0.074674842,45.67830421],[0.074957094,45.67529554],[0.075008019,45.67223559],[0.074803194,45.66899864],[0.074324564,45.66573072],[0.071159964,45.65240794],[0.070454411,45.64802302],[0.070263856,45.64410761],[0.070620892,45.63132318],[0.070501561,45.62745408],[0.069844572,45.6227522],[0.066987997,45.61085403],[0.066265728,45.60633456],[0.066065375,45.60291496],[0.065946083,45.58886944],[0.063101019,45.55520737],[0.062463186,45.55163539],[0.061515589,45.54814329],[0.055565658,45.53257812],[0.054608758,45.52945226],[0.053914108,45.52633793],[0.053401889,45.52248206],[0.053268694,45.51856552],[0.054487006,45.50296649],[0.054529558,45.5000865],[0.054362481,45.49720876],[0.053791383,45.49326937],[0.052827828,45.48936799],[0.051459086,45.48548065],[0.049722769,45.48171393],[0.047769733,45.47828934],[0.045502033,45.47496214],[0.034894333,45.46201381],[0.005426628,45.42089126],[-0.013085708,45.39759488],[-0.01575165,45.39385203],[-0.018140586,45.38996839],[-0.020255356,45.38591062],[-0.022018033,45.38181721],[-0.023446678,45.37765967],[-0.024546389,45.37340699],[-0.025155808,45.37010251],[-0.025556478,45.36678221],[-0.026325247,45.35319608],[-0.026634742,45.3499631],[-0.027496481,45.34527754],[-0.028828531,45.34069299],[-0.031193494,45.33499306],[-0.034267306,45.32951233],[-0.038070428,45.32421385],[-0.042513211,45.31922231],[-0.055974003,45.30631396],[-0.060090353,45.30281774],[-0.064430211,45.29952015],[-0.069208436,45.29627447],[-0.093583036,45.28093436],[-0.118368447,45.26491288],[-0.122452675,45.26206622],[-0.126142425,45.2590811],[-0.130294561,45.25509023],[-0.133902114,45.2508436],[-0.152043258,45.22498714],[-0.155226642,45.22088401],[-0.158212525,45.2176404],[-0.161506497,45.21454944],[-0.165092939,45.21162574],[-0.168954867,45.2088831],[-0.173024725,45.20636294],[-0.177275158,45.20406999],[-0.181733472,45.20198383],[-0.18637955,45.20011382],[-0.2476285,45.18029426],[-0.254072789,45.17783813],[-0.260170228,45.17497337],[-0.263935186,45.1728963],[-0.267563456,45.17063237],[-0.270946522,45.16824931],[-0.274121206,45.16572694],[-0.278449628,45.16172077],[-0.291741331,45.14781159],[-0.296065878,45.14409558],[-0.300822931,45.14065463],[-0.306027619,45.13748602],[-0.311598644,45.13464683],[-0.331916628,45.12624814],[-0.338050228,45.12334669],[-0.341900147,45.12120358],[-0.345602256,45.11886563],[-0.349090928,45.11636866],[-0.35231225,45.11375726],[-0.356000147,45.11031284],[-0.359335842,45.10663932],[-0.369691447,45.09274463],[-0.373771875,45.08750166],[-0.379037797,45.08118362],[-0.387013956,45.07218673],[-0.389263064,45.06936336],[-0.391782389,45.06562554],[-0.404955956,45.04406043],[-0.414116667,45.03030051],[-0.415486044,45.0276348],[-0.416576328,45.02485839],[-0.419119419,45.01539462],[-0.419952303,45.01285304],[-0.421014267,45.01040193],[-0.423799417,45.0049411],[-0.425186319,45.0011499],[-0.425732283,44.99888604],[-0.426078094,44.99660243],[-0.426708281,44.98693612],[-0.427238414,44.98426334],[-0.428043386,44.98162538],[-0.429159264,44.97895115],[-0.430557467,44.97634464],[-0.4369538,44.96674316],[-0.439306583,44.96396842],[-0.442031744,44.96131511],[-0.468152778,44.93856769],[-0.470041983,44.93711659],[-0.472143508,44.93596476],[-0.474489225,44.93508225],[-0.480963,44.933366],[-0.4884271,44.9316688],[-0.492977453,44.93018972]]}}]}